[{"OBJECT_NAME":"COSMOS 2251 DEB","OBJECT_ID":"1993-036BXR","EPOCH":"2026-04-26T16:39:56.680128","MEAN_MOTION":15.49865804,"ECCENTRICITY":0.0013622,"INCLINATION":73.977,"RA_OF_ASC_NODE":265.5546,"ARG_OF_PERICENTER":85.2796,"MEAN_ANOMALY":274.9972,"EPHEMERIS_TYPE":0,"CLASSIFICATION_TYPE":"U","NORAD_CAT_ID":47061,"ELEMENT_SET_NO":999,"REV_AT_EPOCH":66438,"BSTAR":0.0046145,"MEAN_MOTION_DOT":0.00267306,"MEAN_MOTION_DDOT":0},{"OBJECT_NAME":"COSMOS 2251 DEB","OBJECT_ID":"1993-036BXS","EPOCH":"2026-04-14T02:20:55.739040","MEAN_MOTION":13.7230527,"ECCENTRICITY":0.03239017,"INCLINATION":74.0804,"RA_OF_ASC_NODE":236.3268,"ARG_OF_PERICENTER":333.7316,"MEAN_ANOMALY":207.6937,"EPHEMERIS_TYPE":0,"CLASSIFICATION_TYPE":"U","NORAD_CAT_ID":47062,"ELEMENT_SET_NO":999,"REV_AT_EPOCH":57280,"BSTAR":0.00037665739,"MEAN_MOTION_DOT":4.77e-6,"MEAN_MOTION_DDOT":0},{"OBJECT_NAME":"COSMOS 2251 DEB","OBJECT_ID":"1993-036BXY","EPOCH":"2026-04-26T18:49:12.622368","MEAN_MOTION":14.54273368,"ECCENTRICITY":0.0017066,"INCLINATION":74.0241,"RA_OF_ASC_NODE":308.1594,"ARG_OF_PERICENTER":7.3676,"MEAN_ANOMALY":352.7734,"EPHEMERIS_TYPE":0,"CLASSIFICATION_TYPE":"U","NORAD_CAT_ID":47068,"ELEMENT_SET_NO":999,"REV_AT_EPOCH":63719,"BSTAR":0.00082767,"MEAN_MOTION_DOT":3.489e-5,"MEAN_MOTION_DDOT":0},{"OBJECT_NAME":"COSMOS 2251 DEB","OBJECT_ID":"1993-036BXZ","EPOCH":"2026-04-18T00:48:25.396128","MEAN_MOTION":14.86366161,"ECCENTRICITY":0.00036624,"INCLINATION":74.0117,"RA_OF_ASC_NODE":222.2654,"ARG_OF_PERICENTER":183.1233,"MEAN_ANOMALY":176.9924,"EPHEMERIS_TYPE":0,"CLASSIFICATION_TYPE":"U","NORAD_CAT_ID":47069,"ELEMENT_SET_NO":999,"REV_AT_EPOCH":74370,"BSTAR":0.0014405557,"MEAN_MOTION_DOT":0.00012694,"MEAN_MOTION_DDOT":0},{"OBJECT_NAME":"COSMOS 2251 DEB","OBJECT_ID":"1993-036BYD","EPOCH":"2026-04-26T07:41:59.831232","MEAN_MOTION":14.05020074,"ECCENTRICITY":0.01598742,"INCLINATION":74.083,"RA_OF_ASC_NODE":327.6477,"ARG_OF_PERICENTER":333.2943,"MEAN_ANOMALY":26.0022,"EPHEMERIS_TYPE":0,"CLASSIFICATION_TYPE":"U","NORAD_CAT_ID":47073,"ELEMENT_SET_NO":999,"REV_AT_EPOCH":62251,"BSTAR":0.00036702497,"MEAN_MOTION_DOT":6.38e-6,"MEAN_MOTION_DDOT":0},{"OBJECT_NAME":"COSMOS 2251 DEB","OBJECT_ID":"1993-036BYE","EPOCH":"2026-04-26T03:06:45.753408","MEAN_MOTION":14.37208162,"ECCENTRICITY":0.01380732,"INCLINATION":74.0923,"RA_OF_ASC_NODE":62.5879,"ARG_OF_PERICENTER":57.2037,"MEAN_ANOMALY":319.8751,"EPHEMERIS_TYPE":0,"CLASSIFICATION_TYPE":"U","NORAD_CAT_ID":47074,"ELEMENT_SET_NO":999,"REV_AT_EPOCH":4612,"BSTAR":0.0021647641,"MEAN_MOTION_DOT":7.173e-5,"MEAN_MOTION_DDOT":0},{"OBJECT_NAME":"COSMOS 2251 DEB","OBJECT_ID":"1993-036BYJ","EPOCH":"2026-04-20T21:14:37.347936","MEAN_MOTION":15.0580111,"ECCENTRICITY":0.0017624,"INCLINATION":74.0211,"RA_OF_ASC_NODE":337.1805,"ARG_OF_PERICENTER":59.7373,"MEAN_ANOMALY":314.1066,"EPHEMERIS_TYPE":0,"CLASSIFICATION_TYPE":"U","NORAD_CAT_ID":47116,"ELEMENT_SET_NO":999,"REV_AT_EPOCH":61450,"BSTAR":0.0013700224,"MEAN_MOTION_DOT":0.00019951,"MEAN_MOTION_DDOT":0},{"OBJECT_NAME":"COSMOS 2251 DEB","OBJECT_ID":"1993-036BYP","EPOCH":"2026-04-26T19:41:10.469184","MEAN_MOTION":14.4263647,"ECCENTRICITY":0.001944,"INCLINATION":74.0364,"RA_OF_ASC_NODE":50.9279,"ARG_OF_PERICENTER":106.0805,"MEAN_ANOMALY":254.2493,"EPHEMERIS_TYPE":0,"CLASSIFICATION_TYPE":"U","NORAD_CAT_ID":53093,"ELEMENT_SET_NO":999,"REV_AT_EPOCH":19673,"BSTAR":0.00082688,"MEAN_MOTION_DOT":2.729e-5,"MEAN_MOTION_DDOT":0}]
