COSMOS 2251 DEB         
1 47061U 93036BXR 26116.69440602  .00267306  00000+0  46145-2 0  9991
2 47061  73.9770 265.5546 0013622  85.2796 274.9972 15.49865804664384
COSMOS 2251 DEB         
1 47062U 93036BXS 26104.09786735  .00000477  00000+0  37666-3 0  9996
2 47062  74.0804 236.3268 0323901 333.7316 207.6937 13.72305270572804
COSMOS 2251 DEB         
1 47068U 93036BXY 26116.78417387  .00003489  00000+0  82767-3 0  9993
2 47068  74.0241 308.1594 0017066   7.3676 352.7734 14.54273368637194
COSMOS 2251 DEB         
1 47069U 93036BXZ 26108.03362727  .00012694  00000+0  14406-2 0  9992
2 47069  74.0117 222.2654 0003662 183.1233 176.9924 14.86366161743700
COSMOS 2251 DEB         
1 47073U 93036BYD 26116.32083138  .00000638  00000+0  36702-3 0  9993
2 47073  74.0830 327.6477 0159874 333.2943  26.0022 14.05020074622513
COSMOS 2251 DEB         
1 47074U 93036BYE 26116.12969622  .00007173  00000+0  21648-2 0  9996
2 47074  74.0923  62.5879 0138073  57.2037 319.8751 14.37208162 46123
COSMOS 2251 DEB         
1 47116U 93036BYJ 26110.88515449  .00019951  00000+0  13700-2 0  9991
2 47116  74.0211 337.1805 0017624  59.7373 314.1066 15.05801110614506
COSMOS 2251 DEB         
1 53093U 93036BYP 26116.82026006  .00002729  00000+0  82688-3 0  9995
2 53093  74.0364  50.9279 0019440 106.0805 254.2493 14.42636470196738
